OBJECT_NAME,OBJECT_ID,EPOCH,MEAN_MOTION,ECCENTRICITY,INCLINATION,RA_OF_ASC_NODE,ARG_OF_PERICENTER,MEAN_ANOMALY,EPHEMERIS_TYPE,CLASSIFICATION_TYPE,NORAD_CAT_ID,ELEMENT_SET_NO,REV_AT_EPOCH,BSTAR,MEAN_MOTION_DOT,MEAN_MOTION_DDOT
SAUDISAT 2,2004-025F,2026-07-13T14:40:42.536352,14.56697761,.0023978,98.5519,195.2777,213.1806,146.7889,0,U,28371,999,16959,.34565E-4,.105E-5,0
COSMOS 2407,2004-028A,2026-07-13T16:09:49.649184,13.76336481,.0039205,82.9586,55.2144,176.3096,245.4808,0,U,28380,999,10352,.32995E-4,.48E-6,0
COSMOS 2414,2005-002A,2026-07-13T15:12:30.344256,13.87928233,.0038731,82.9486,23.6366,253.4428,106.2479,0,U,28521,999,8748,.32963E-4,.55E-6,0
INMARSAT 4-F1,2005-009A,2026-07-13T19:26:37.150080,1.00270943,.0002357,5.2034,42.7841,71.8828,286.7662,0,U,28628,999,7793,0,.24E-6,0
SJ-7,2005-024A,2026-07-13T15:44:40.756128,15.21921835,.0013777,97.7278,225.4766,302.8281,57.1627,0,U,28737,999,15205,.19377E-3,.4349E-4,0
CUBESAT XI-V,2005-043F,2026-07-13T10:12:39.204000,14.72699773,.00151946,98.3010,350.6030,120.4468,239.8242,0,U,28895,999,10561,.12096734E-3,.72E-5,0
HINODE (SOLAR-B),2006-041A,2026-07-13T14:53:09.408192,14.68657101,.001692,98.0549,210.3831,199.5513,160.5045,0,U,29479,999,5875,.63565E-4,.321E-5,0
SHIJIAN-6 02B (SJ-6 02B),2006-046B,2026-07-13T19:18:40.129632,15.01435590,.0013561,97.7152,223.6985,341.1846,18.8876,0,U,29506,999,7473,.39081E-4,.444E-5,0
DMSP 5D-3 F17 (USA 191),2006-050A,2026-07-13T19:52:03.432000,14.14996147,.0009795,98.7386,200.8535,346.9228,13.1690,0,U,29522,999,1619,.10487E-4,-.23E-6,0
LAPAN-TUBSAT,2007-001A,2026-07-13T20:27:48.017376,14.85975550,.0013608,98.1349,194.6790,97.3597,262.9164,0,U,29709,999,5511,-.20037E-5,-.75E-6,0
HAIYANG-1B,2007-010A,2026-07-13T20:30:08.400960,14.31033072,.0014602,98.3514,175.6675,119.4943,240.7699,0,U,31113,999,445,.25968E-4,.27E-6,0
COSMO-SKYMED 2,2007-059A,2026-07-13T19:51:53.285184,14.82149851,.0001428,97.8892,18.0401,94.3008,265.8369,0,U,32376,999,595,.29769E-4,.185E-5,0
CARTOSAT-2A,2008-021A,2026-07-13T19:59:34.699200,14.79276149,.0012617,97.7626,242.6303,31.4062,328.7901,0,U,32783,999,98274,.87144E-4,.598E-5,0
CUTE-1.7+APD II (CO-65),2008-021C,2026-07-13T21:29:22.846848,15.09693670,.0007148,97.8288,176.8764,304.7170,55.3385,0,U,32785,999,98922,.20405E-3,.3221E-4,0
SEEDS II (CO-66),2008-021J,2026-07-13T12:03:43.890048,15.33629018,.00028857,97.7522,193.6748,159.9785,200.1570,0,U,32791,999,99132,.32807645E-3,.10586E-3,0
YUBILEINY (RS30),2008-025A,2026-07-13T21:32:37.885344,12.43180743,.0018588,82.5054,338.8234,251.9869,107.9185,0,U,32953,999,82301,-.97929E-4,-.4E-7,0
FENGYUN 3A,2008-026A,2026-07-13T19:56:40.324992,14.19576343,.0009697,98.6887,135.1665,55.4329,304.7761,0,U,32958,999,93918,.25818E-4,.11E-6,0
HUANJING 1A (HJ-1A),2008-041A,2026-07-13T20:48:34.179264,14.84049082,.0020463,97.6690,179.6759,53.6790,306.6310,0,U,33320,999,96236,.12897E-3,.1027E-4,0
HUANJING 1B (HJ-1B),2008-041B,2026-07-13T21:58:48.962208,14.83362933,.0037908,97.6526,182.8131,95.2790,265.2751,0,U,33321,999,96237,.63667E-4,.476E-5,0
SHIJIAN-6 03A (SJ-6 03A),2008-053A,2026-07-13T19:46:23.458368,15.17409639,.0009515,97.8402,229.0727,282.2235,77.7932,0,U,33408,999,96700,.14455E-3,.2819E-4,0
SHIJIAN-6 03B (SJ-6 03B),2008-053B,2026-07-13T20:08:13.956288,15.04378920,.0017842,97.8578,215.1724,316.0806,43.9000,0,U,33409,999,96675,.31573E-4,.376E-5,0
CHUANGXIN 1-02 (CX-1-02),2008-056B,2026-07-13T21:11:50.734176,14.30158248,.0015431,98.6132,220.8824,63.9773,296.2996,0,U,33434,999,92243,.21002E-4,.11E-6,0
