SAUDISAT 2              
1 28371U 04025F   26194.61160343  .00000105  00000+0  34565-4 0  9990
2 28371  98.5519 195.2777 0023978 213.1806 146.7889 14.56697761169593
COSMOS 2407             
1 28380U 04028A   26194.67349131  .00000048  00000+0  32995-4 0  9994
2 28380  82.9586  55.2144 0039205 176.3096 245.4808 13.76336481103527
COSMOS 2414             
1 28521U 05002A   26194.63368454  .00000055  00000+0  32963-4 0  9992
2 28521  82.9486  23.6366 0038731 253.4428 106.2479 13.87928233 87485
INMARSAT 4-F1           
1 28628U 05009A   26194.81015220  .00000024  00000+0  00000+0 0  9995
2 28628   5.2034  42.7841 0002357  71.8828 286.7662  1.00270943 77938
SJ-7                    
1 28737U 05024A   26194.65602727  .00004349  00000+0  19377-3 0  9994
2 28737  97.7278 225.4766 0013777 302.8281  57.1627 15.21921835152058
CUBESAT XI-V            
1 28895U 05043F   26194.42545375  .00000720  00000+0  12097-3 0  9991
2 28895  98.3010 350.6030 0015194 120.4468 239.8242 14.72699773105615
HINODE (SOLAR-B)        
1 29479U 06041A   26194.62024778  .00000321  00000+0  63565-4 0  9994
2 29479  98.0549 210.3831 0016920 199.5513 160.5045 14.68657101 58752
SHIJIAN-6 02B (SJ-6 02B)
1 29506U 06046B   26194.80463113  .00000444  00000+0  39081-4 0  9992
2 29506  97.7152 223.6985 0013561 341.1846  18.8876 15.01435590 74735
DMSP 5D-3 F17 (USA 191) 
1 29522U 06050A   26194.82781750 -.00000023  00000+0  10487-4 0  9990
2 29522  98.7386 200.8535 0009795 346.9228  13.1690 14.14996147 16193
LAPAN-TUBSAT            
1 29709U 07001A   26194.85263909 -.00000075  00000+0 -20037-5 0  9999
2 29709  98.1349 194.6790 0013608  97.3597 262.9164 14.85975550 55118
HAIYANG-1B              
1 31113U 07010A   26194.85426390  .00000027  00000+0  25968-4 0  9998
2 31113  98.3514 175.6675 0014602 119.4943 240.7699 14.31033072  4456
COSMO-SKYMED 2          
1 32376U 07059A   26194.82770006  .00000185  00000+0  29769-4 0  9994
2 32376  97.8892  18.0401 0001428  94.3008 265.8369 14.82149851  5950
CARTOSAT-2A             
1 32783U 08021A   26194.83304050  .00000598  00000+0  87144-4 0  9998
2 32783  97.7626 242.6303 0012617  31.4062 328.7901 14.79276149982745
CUTE-1.7+APD II (CO-65) 
1 32785U 08021C   26194.89540332  .00003221  00000+0  20405-3 0  9993
2 32785  97.8288 176.8764 0007148 304.7170  55.3385 15.09693670989225
SEEDS II (CO-66)        
1 32791U 08021J   26194.50259132  .00010586  00000+0  32808-3 0  9995
2 32791  97.7522 193.6748 0002885 159.9785 200.1570 15.33629018991328
YUBILEINY (RS30)        
1 32953U 08025A   26194.89766071 -.00000004  00000+0 -97929-4 0  9998
2 32953  82.5054 338.8234 0018588 251.9869 107.9185 12.43180743823017
FENGYUN 3A              
1 32958U 08026A   26194.83102228  .00000011  00000+0  25818-4 0  9990
2 32958  98.6887 135.1665 0009697  55.4329 304.7761 14.19576343939182
HUANJING 1A (HJ-1A)     
1 33320U 08041A   26194.86706226  .00001027  00000+0  12897-3 0  9992
2 33320  97.6690 179.6759 0020463  53.6790 306.6310 14.84049082962364
HUANJING 1B (HJ-1B)     
1 33321U 08041B   26194.91584447  .00000476  00000+0  63667-4 0  9997
2 33321  97.6526 182.8131 0037908  95.2790 265.2751 14.83362933962379
SHIJIAN-6 03A (SJ-6 03A)
1 33408U 08053A   26194.82388262  .00002819  00000+0  14455-3 0  9996
2 33408  97.8402 229.0727 0009515 282.2235  77.7932 15.17409639967005
SHIJIAN-6 03B (SJ-6 03B)
1 33409U 08053B   26194.83905042  .00000376  00000+0  31573-4 0  9996
2 33409  97.8578 215.1724 0017842 316.0806  43.9000 15.04378920966751
CHUANGXIN 1-02 (CX-1-02)
1 33434U 08056B   26194.88322609  .00000011  00000+0  21002-4 0  9996
2 33434  98.6132 220.8824 0015431  63.9773 296.2996 14.30158248922432
